{"type":"FeatureCollection","features":[{"type":"Feature","geometry":{"type":"Polygon","coordinates":[[[-120.84431472635563,39.344302538383751],[-120.8447245108388,39.34407508502732],[-120.84532010824522,39.343837606860426],[-120.84585285412447,39.343720023832709],[-120.84608518450807,39.343703693786601],[-120.84647651759529,39.343721005469412],[-120.84699459847752,39.343793601390452],[-120.84750300540244,39.343926917530972],[-120.84787483965812,39.344074674450972],[-120.84860044035413,39.344411682469193],[-120.84933941247319,39.344819765086065],[-120.8497540676218,39.345011290733694],[-120.85013550127459,39.345284705359354],[-120.85031681094334,39.345547909605635],[-120.85250395982681,39.345984819630182],[-120.85363036095482,39.332883214417194],[-120.83330258022323,39.332010133216869],[-120.8327777053825,39.33779465241593],[-120.83276577485722,39.3379899088022],[-120.8324902615596,39.341319797501029],[-120.83247448085498,39.341572445523731],[-120.83212923763007,39.345608815313533],[-120.84332664062856,39.345535899631791],[-120.84350844886228,39.345412768103401],[-120.84361297772703,39.34500579144639],[-120.84382312241809,39.344746555414361],[-120.84408307060679,39.344456830349209],[-120.84431472635563,39.344302538383751]]]},"properties":{"APN":"014160001000","APNSeven":"014160001","Acreage":626,"GISACRES":613.63,"MINFT":2381,"MAXFT":4228,"ZONING":"TPZ-160","LegalDescription":"PTN 15-17-10","GPDES":"FOR-160","FIREDIST":null,"WATER_DIST":null,"SNOWLOAD":"134","MINERAL":"N","CL_ZONE":"11","SL_ZONE":"W","REPORT_URL":"https://reports.nevcounty.net/property/rdPage.aspx?rdReport=parcel.ParcelReport&APN=014160001000"}}]}